{
  "status": "success",
  "hasErrors": false,
  "message": "",
  "length": 155,
  "payload": [
    {
      "_index": "tle",
      "_type": "_doc",
      "_id": "g1iktXYBAz3ao6c9o4fF",
      "_score": 9.904248,
      "_source": {
        "right_ascension": "38.9884",
        "anomaly": "41.4075",
        "calc_anomaly": 41.4075,
        "satellite_number": 10976,
        "calc_mean_motion": 2.22213228,
        "ephemeris": "0",
        "set_number": "241",
        "calc_ballistic_coefficient": -4.6e-7,
        "epoch": "04173.46022369",
        "international_designator": "78068B",
        "calc_inclination": 22.0626,
        "perigee": "229.7130",
        "revolution_number": "21075",
        "line_number": 171575,
        "calc_perigee": 229.713,
        "drag": "19086-2",
        "text": "1 10976U 78068B   04173.46022369 -.00000046  00000-0  19086-2 0  2416\n2 10976  22.0626  38.9884 7184938 229.7130  41.4075  2.22213228210757",
        "calc_drag": 0.0019086,
        "timestamp": "2004-06-21 11:02:43",
        "inclination": "22.0626",
        "eccentricity": "7184938",
        "classification": "U",
        "calc_right_ascension": 38.9884,
        "calc_mean_motion_2": 0,
        "ballistic_coefficient": "-.00000046",
        "filename": "tle2004_5of8.txt",
        "calc_eccentricity": 0.7184938,
        "mean_motion": "2.22213228",
        "mean_motion_2": "00000-0"
      }
    },
    {
      "_index": "tle",
      "_type": "_doc",
      "_id": "NVintXYBAz3ao6c9fuwZ",
      "_score": 9.904248,
      "_source": {
        "right_ascension": "42.9034",
        "anomaly": "50.8117",
        "calc_anomaly": 50.8117,
        "satellite_number": 10976,
        "calc_mean_motion": 2.22212386,
        "ephemeris": "0",
        "set_number": "235",
        "calc_ballistic_coefficient": -0.00000121,
        "epoch": "04161.77130497",
        "international_designator": "78068B",
        "calc_inclination": 22.0597,
        "perigee": "222.6610",
        "revolution_number": "21049",
        "line_number": 91627,
        "calc_perigee": 222.661,
        "drag": "19086-2",
        "text": "1 10976U 78068B   04161.77130497 -.00000121  00000-0  19086-2 0  2356\n2 10976  22.0597  42.9034 7185418 222.6610  50.8117  2.22212386210491",
        "calc_drag": 0.0019086,
        "timestamp": "2004-06-09 18:30:40",
        "inclination": "22.0597",
        "eccentricity": "7185418",
        "classification": "U",
        "calc_right_ascension": 42.9034,
        "calc_mean_motion_2": 0,
        "ballistic_coefficient": "-.00000121",
        "filename": "tle2004_5of8.txt",
        "calc_eccentricity": 0.7185418,
        "mean_motion": "2.22212386",
        "mean_motion_2": "00000-0"
      }
    },
    {
      "_index": "tle",
      "_type": "_doc",
      "_id": "Pe_stXYBwxzt-Zlw_7WW",
      "_score": 9.904248,
      "_source": {
        "right_ascension": "314.6727",
        "anomaly": "008.1154",
        "calc_anomaly": 8.1154,
        "satellite_number": 10976,
        "calc_mean_motion": 2.22241267,
        "ephemeris": "0",
        "set_number": "0037",
        "calc_ballistic_coefficient": -0.00000136,
        "epoch": "08006.14755103",
        "international_designator": "78068B",
        "calc_inclination": 22.0364,
        "perigee": "300.3352",
        "revolution_number": "23951",
        "line_number": 196219,
        "calc_perigee": 300.3352,
        "drag": "+00000-0",
        "text": "1 10976U 78068B   08006.14755103 -.00000136  00000-0  00000-0 0   376\n2 10976  22.0364 314.6727 7183701 300.3352   8.1154  2.22241267239512",
        "calc_drag": 0,
        "timestamp": "2008-01-06 03:32:28",
        "inclination": "022.0364",
        "eccentricity": "7183701",
        "classification": "U",
        "calc_right_ascension": 314.6727,
        "calc_mean_motion_2": 0,
        "ballistic_coefficient": "-.00000136",
        "filename": "tle2008.txt",
        "calc_eccentricity": 0.7183701,
        "mean_motion": "02.22241267",
        "mean_motion_2": "+00000-0"
      }
    },
    {
      "_index": "tle",
      "_type": "_doc",
      "_id": "d_D5tXYBwxzt-Zlwhs2-",
      "_score": 9.904248,
      "_source": {
        "right_ascension": "187.8478",
        "anomaly": "238.4431",
        "calc_anomaly": 238.4431,
        "satellite_number": 10976,
        "calc_mean_motion": 2.22239939,
        "ephemeris": "0",
        "set_number": "276",
        "calc_ballistic_coefficient": 4e-7,
        "epoch": "09005.81042102",
        "international_designator": "78068B",
        "calc_inclination": 21.2917,
        "perigee": "165.4129",
        "revolution_number": "24764",
        "line_number": 74903,
        "calc_perigee": 165.4129,
        "drag": "00000+0",
        "text": "1 10976U 78068B   09005.81042102  .00000040  00000-0  00000-0 0  2766\n2 10976  21.2917 187.8478 7150448 165.4129 238.4431  2.22239939247646",
        "calc_drag": 0,
        "timestamp": "2009-01-05 19:27:00",
        "inclination": "021.2917",
        "eccentricity": "7150448",
        "classification": "U",
        "calc_right_ascension": 187.8478,
        "calc_mean_motion_2": 0,
        "ballistic_coefficient": ".00000040",
        "filename": "tle2009.txt",
        "calc_eccentricity": 0.7150448,
        "mean_motion": "02.22239939",
        "mean_motion_2": "00000-0"
      }
    },
    {
      "_index": "tle",
      "_type": "_doc",
      "_id": "-_MetnYBwxzt-ZlwZpOS",
      "_score": 9.904248,
      "_source": {
        "right_ascension": "170.1043",
        "anomaly": "331.4846",
        "calc_anomaly": 331.4846,
        "satellite_number": 10976,
        "calc_mean_motion": 2.22264737,
        "ephemeris": "0",
        "set_number": "936",
        "calc_ballistic_coefficient": -9.9e-7,
        "epoch": "12003.42637021",
        "international_designator": "78068B",
        "calc_inclination": 21.1242,
        "perigee": "116.5561",
        "revolution_number": "27194",
        "line_number": 88513,
        "calc_perigee": 116.5561,
        "drag": "00000+0",
        "text": "1 10976U 78068B   12003.42637021 -.00000099  00000-0  00000-0 0  9363\n2 10976  21.1242 170.1043 7192369 116.5561 331.4846  2.22264737271942",
        "calc_drag": 0,
        "timestamp": "2012-01-03 10:13:58",
        "inclination": "021.1242",
        "eccentricity": "7192369",
        "classification": "U",
        "calc_right_ascension": 170.1043,
        "calc_mean_motion_2": 0,
        "ballistic_coefficient": "-.00000099",
        "filename": "tle2012.txt",
        "calc_eccentricity": 0.7192369,
        "mean_motion": "02.22264737",
        "mean_motion_2": "00000-0"
      }
    },
    {
      "_index": "tle",
      "_type": "_doc",
      "_id": "hvMjtnYBwxzt-Zlw5M4b",
      "_score": 9.904248,
      "_source": {
        "right_ascension": "168.1535",
        "anomaly": "328.8355",
        "calc_anomaly": 328.8355,
        "satellite_number": 10976,
        "calc_mean_motion": 2.22265629,
        "ephemeris": "0",
        "set_number": "939",
        "calc_ballistic_coefficient": -6e-7,
        "epoch": "12008.82200252",
        "international_designator": "78068B",
        "calc_inclination": 21.1409,
        "perigee": "119.9880",
        "revolution_number": "27206",
        "line_number": 251017,
        "calc_perigee": 119.988,
        "drag": "00000+0",
        "text": "1 10976U 78068B   12008.82200252 -.00000060  00000-0  00000-0 0  9395\n2 10976  21.1409 168.1535 7191425 119.9880 328.8355  2.22265629272063",
        "calc_drag": 0,
        "timestamp": "2012-01-08 19:43:41",
        "inclination": "021.1409",
        "eccentricity": "7191425",
        "classification": "U",
        "calc_right_ascension": 168.1535,
        "calc_mean_motion_2": 0,
        "ballistic_coefficient": "-.00000060",
        "filename": "tle2012.txt",
        "calc_eccentricity": 0.7191425,
        "mean_motion": "02.22265629",
        "mean_motion_2": "00000-0"
      }
    },
    {
      "_index": "tle",
      "_type": "_doc",
      "_id": "aWQmtnYBAz3ao6c9gJbt",
      "_score": 9.904248,
      "_source": {
        "right_ascension": "039.5958",
        "anomaly": "031.5853",
        "calc_anomaly": 31.5853,
        "satellite_number": 10976,
        "calc_mean_motion": 2.22268038,
        "ephemeris": "0",
        "set_number": "133",
        "calc_ballistic_coefficient": -5.3e-7,
        "epoch": "13014.53219675",
        "international_designator": "78068B",
        "calc_inclination": 21.8141,
        "perigee": "348.3294",
        "revolution_number": "28033",
        "line_number": 225981,
        "calc_perigee": 348.3294,
        "drag": "73607-3",
        "text": "1 10976U 78068B   13014.53219675 -.00000053  00000-0  73607-3 0  1334\n2 10976  21.8141  39.5958 7173803 348.3294  31.5853  2.22268038280337",
        "calc_drag": 0.00073607,
        "timestamp": "2013-01-14 12:46:21",
        "inclination": "021.8141",
        "eccentricity": "7173803",
        "classification": "U",
        "calc_right_ascension": 39.5958,
        "calc_mean_motion_2": 0,
        "ballistic_coefficient": "-.00000053",
        "filename": "tle2013.txt",
        "calc_eccentricity": 0.7173803,
        "mean_motion": "02.22268038",
        "mean_motion_2": "00000-0"
      }
    }
  ]
}